CCSDS_OMM_VERS = 2.0
CREATION_DATE  = 
ORIGINATOR     = 

OBJECT_NAME    = UNKNOWN
OBJECT_ID      = 
CENTER_NAME    = EARTH
REF_FRAME      = TEME
TIME_SYSTEM    = UTC
MEAN_ELEMENT_THEORY = SGP/SGP4

EPOCH          = 2026-01-02T04:47:21.880320
MEAN_MOTION    = 14.21071659
ECCENTRICITY   = .00986095
INCLINATION    = 98.6843
RA_OF_ASC_NODE = 273.1575
ARG_OF_PERICENTER = 223.1257
MEAN_ANOMALY   = 136.2166

EPHEMERIS_TYPE = 0
CLASSIFICATION_TYPE = U
NORAD_CAT_ID   = 270342
ELEMENT_SET_NO = 999
REV_AT_EPOCH   = 22549
BSTAR          = .40554575E-2
MEAN_MOTION_DOT = .9214E-4
MEAN_MOTION_DDOT = 0

CCSDS_OMM_VERS = 2.0
CREATION_DATE  = 
ORIGINATOR     = 

OBJECT_NAME    = UNKNOWN
OBJECT_ID      = 
CENTER_NAME    = EARTH
REF_FRAME      = TEME
TIME_SYSTEM    = UTC
MEAN_ELEMENT_THEORY = SGP/SGP4

EPOCH          = 2025-12-29T10:48:01.176768
MEAN_MOTION    = 12.45429016
ECCENTRICITY   = .0710136
INCLINATION    = 83.4051
RA_OF_ASC_NODE = 75.9543
ARG_OF_PERICENTER = 305.3542
MEAN_ANOMALY   = 48.3134

EPHEMERIS_TYPE = 0
CLASSIFICATION_TYPE = U
NORAD_CAT_ID   = 270343
ELEMENT_SET_NO = 999
REV_AT_EPOCH   = 19612
BSTAR          = .88384958E-2
MEAN_MOTION_DOT = .3128E-4
MEAN_MOTION_DDOT = 0

CCSDS_OMM_VERS = 2.0
CREATION_DATE  = 
ORIGINATOR     = 

OBJECT_NAME    = UNKNOWN
OBJECT_ID      = 
CENTER_NAME    = EARTH
REF_FRAME      = TEME
TIME_SYSTEM    = UTC
MEAN_ELEMENT_THEORY = SGP/SGP4

EPOCH          = 2025-12-16T01:23:08.434464
MEAN_MOTION    = 13.06540304
ECCENTRICITY   = .02632382
INCLINATION    = 105.8394
RA_OF_ASC_NODE = 93.8750
ARG_OF_PERICENTER = 106.8770
MEAN_ANOMALY   = 256.1354

EPHEMERIS_TYPE = 0
CLASSIFICATION_TYPE = U
NORAD_CAT_ID   = 270344
ELEMENT_SET_NO = 999
REV_AT_EPOCH   = 20252
BSTAR          = .37801436E-3
MEAN_MOTION_DOT = .68E-6
MEAN_MOTION_DDOT = 0

CCSDS_OMM_VERS = 2.0
CREATION_DATE  = 
ORIGINATOR     = 

OBJECT_NAME    = UNKNOWN
OBJECT_ID      = 
CENTER_NAME    = EARTH
REF_FRAME      = TEME
TIME_SYSTEM    = UTC
MEAN_ELEMENT_THEORY = SGP/SGP4

EPOCH          = 2025-12-19T06:01:42.088512
MEAN_MOTION    = 12.98347461
ECCENTRICITY   = .00308691
INCLINATION    = 90.2305
RA_OF_ASC_NODE = 352.9727
ARG_OF_PERICENTER = 145.4598
MEAN_ANOMALY   = 214.8537

EPHEMERIS_TYPE = 0
CLASSIFICATION_TYPE = U
NORAD_CAT_ID   = 270346
ELEMENT_SET_NO = 999
REV_AT_EPOCH   = 19501
BSTAR          = -.90917158E-4
MEAN_MOTION_DOT = -.19E-6
MEAN_MOTION_DDOT = 0

CCSDS_OMM_VERS = 2.0
CREATION_DATE  = 
ORIGINATOR     = 

OBJECT_NAME    = UNKNOWN
OBJECT_ID      = 
CENTER_NAME    = EARTH
REF_FRAME      = TEME
TIME_SYSTEM    = UTC
MEAN_ELEMENT_THEORY = SGP/SGP4

EPOCH          = 2025-12-25T03:48:02.798208
MEAN_MOTION    = 13.04797454
ECCENTRICITY   = .00956083
INCLINATION    = 82.6933
RA_OF_ASC_NODE = 324.4934
ARG_OF_PERICENTER = 7.7556
MEAN_ANOMALY   = 352.5011

EPHEMERIS_TYPE = 0
CLASSIFICATION_TYPE = U
NORAD_CAT_ID   = 270347
ELEMENT_SET_NO = 999
REV_AT_EPOCH   = 12283
BSTAR          = -.13663974E-2
MEAN_MOTION_DOT = -.438E-5
MEAN_MOTION_DDOT = 0

CCSDS_OMM_VERS = 2.0
CREATION_DATE  = 
ORIGINATOR     = 

OBJECT_NAME    = UNKNOWN
OBJECT_ID      = 
CENTER_NAME    = EARTH
REF_FRAME      = TEME
TIME_SYSTEM    = UTC
MEAN_ELEMENT_THEORY = SGP/SGP4

EPOCH          = 2025-12-31T09:15:47.750112
MEAN_MOTION    = 13.21048203
ECCENTRICITY   = .00236529
INCLINATION    = 82.5447
RA_OF_ASC_NODE = 246.5123
ARG_OF_PERICENTER = 120.8592
MEAN_ANOMALY   = 239.4863

EPHEMERIS_TYPE = 0
CLASSIFICATION_TYPE = U
NORAD_CAT_ID   = 270349
ELEMENT_SET_NO = 999
REV_AT_EPOCH   = 18367
BSTAR          = .9792058E-3
MEAN_MOTION_DOT = .413E-5
MEAN_MOTION_DDOT = 0

CCSDS_OMM_VERS = 2.0
CREATION_DATE  = 
ORIGINATOR     = 

OBJECT_NAME    = UNKNOWN
OBJECT_ID      = 
CENTER_NAME    = EARTH
REF_FRAME      = TEME
TIME_SYSTEM    = UTC
MEAN_ELEMENT_THEORY = SGP/SGP4

EPOCH          = 2026-01-01T10:40:58.959840
MEAN_MOTION    = 2.00378510
ECCENTRICITY   = .74688567
INCLINATION    = 62.1285
RA_OF_ASC_NODE = 107.8952
ARG_OF_PERICENTER = 47.9920
MEAN_ANOMALY   = 354.6813

EPHEMERIS_TYPE = 0
CLASSIFICATION_TYPE = U
NORAD_CAT_ID   = 270365
ELEMENT_SET_NO = 999
REV_AT_EPOCH   = 1776
BSTAR          = .24417765E-2
MEAN_MOTION_DOT = .2633E-4
MEAN_MOTION_DDOT = 0

CCSDS_OMM_VERS = 2.0
CREATION_DATE  = 
ORIGINATOR     = 

OBJECT_NAME    = UNKNOWN
OBJECT_ID      = 
CENTER_NAME    = EARTH
REF_FRAME      = TEME
TIME_SYSTEM    = UTC
MEAN_ELEMENT_THEORY = SGP/SGP4

EPOCH          = 2025-12-27T15:47:30.397344
MEAN_MOTION    = 13.14523471
ECCENTRICITY   = .01318586
INCLINATION    = 103.0536
RA_OF_ASC_NODE = 136.7022
ARG_OF_PERICENTER = 250.6787
MEAN_ANOMALY   = 108.0016

EPHEMERIS_TYPE = 0
CLASSIFICATION_TYPE = U
NORAD_CAT_ID   = 270376
ELEMENT_SET_NO = 999
REV_AT_EPOCH   = 14459
BSTAR          = .243855E-1
MEAN_MOTION_DOT = .9409E-4
MEAN_MOTION_DDOT = 0

CCSDS_OMM_VERS = 2.0
CREATION_DATE  = 
ORIGINATOR     = 

OBJECT_NAME    = UNKNOWN
OBJECT_ID      = 
CENTER_NAME    = EARTH
REF_FRAME      = TEME
TIME_SYSTEM    = UTC
MEAN_ELEMENT_THEORY = SGP/SGP4

EPOCH          = 2025-12-31T07:13:23.305152
MEAN_MOTION    = 13.20169564
ECCENTRICITY   = .04187716
INCLINATION    = 82.5487
RA_OF_ASC_NODE = 324.6966
ARG_OF_PERICENTER = 207.8099
MEAN_ANOMALY   = 150.0068

EPHEMERIS_TYPE = 0
CLASSIFICATION_TYPE = U
NORAD_CAT_ID   = 270378
ELEMENT_SET_NO = 999
REV_AT_EPOCH   = 14391
BSTAR          = .55580446E-3
MEAN_MOTION_DOT = .366E-5
MEAN_MOTION_DDOT = 0

CCSDS_OMM_VERS = 2.0
CREATION_DATE  = 
ORIGINATOR     = 

OBJECT_NAME    = UNKNOWN
OBJECT_ID      = 
CENTER_NAME    = EARTH
REF_FRAME      = TEME
TIME_SYSTEM    = UTC
MEAN_ELEMENT_THEORY = SGP/SGP4

EPOCH          = 2026-01-02T04:45:41.880096
MEAN_MOTION    = 14.19432573
ECCENTRICITY   = .00134013
INCLINATION    = 81.2117
RA_OF_ASC_NODE = 92.3527
ARG_OF_PERICENTER = 97.7702
MEAN_ANOMALY   = 262.4996

EPHEMERIS_TYPE = 0
CLASSIFICATION_TYPE = U
NORAD_CAT_ID   = 270387
ELEMENT_SET_NO = 999
REV_AT_EPOCH   = 13649
BSTAR          = .39308989E-2
MEAN_MOTION_DOT = .8292E-4
MEAN_MOTION_DDOT = 0

CCSDS_OMM_VERS = 2.0
CREATION_DATE  = 
ORIGINATOR     = 

OBJECT_NAME    = UNKNOWN
OBJECT_ID      = 
CENTER_NAME    = EARTH
REF_FRAME      = TEME
TIME_SYSTEM    = UTC
MEAN_ELEMENT_THEORY = SGP/SGP4

EPOCH          = 2026-01-01T13:39:53.262144
MEAN_MOTION    = 14.03130922
ECCENTRICITY   = .01279995
INCLINATION    = 89.1874
RA_OF_ASC_NODE = 305.8209
ARG_OF_PERICENTER = 32.6747
MEAN_ANOMALY   = 328.2270

EPHEMERIS_TYPE = 0
CLASSIFICATION_TYPE = U
NORAD_CAT_ID   = 270408
ELEMENT_SET_NO = 999
REV_AT_EPOCH   = 2227
BSTAR          = .87446039E-3
MEAN_MOTION_DOT = .1475E-4
MEAN_MOTION_DDOT = 0

CCSDS_OMM_VERS = 2.0
CREATION_DATE  = 
ORIGINATOR     = 

OBJECT_NAME    = UNKNOWN
OBJECT_ID      = 
CENTER_NAME    = EARTH
REF_FRAME      = TEME
TIME_SYSTEM    = UTC
MEAN_ELEMENT_THEORY = SGP/SGP4

EPOCH          = 2026-01-02T04:01:12.959040
MEAN_MOTION    = 14.70514218
ECCENTRICITY   = .0145994
INCLINATION    = 88.7483
RA_OF_ASC_NODE = 272.3767
ARG_OF_PERICENTER = 45.8934
MEAN_ANOMALY   = 315.4187

EPHEMERIS_TYPE = 0
CLASSIFICATION_TYPE = U
NORAD_CAT_ID   = 270413
ELEMENT_SET_NO = 999
REV_AT_EPOCH   = 7488
BSTAR          = .1148109E-2
MEAN_MOTION_DOT = .8245E-4
MEAN_MOTION_DDOT = 0

CCSDS_OMM_VERS = 2.0
CREATION_DATE  = 
ORIGINATOR     = 

OBJECT_NAME    = UNKNOWN
OBJECT_ID      = 
CENTER_NAME    = EARTH
REF_FRAME      = TEME
TIME_SYSTEM    = UTC
MEAN_ELEMENT_THEORY = SGP/SGP4

EPOCH          = 2026-01-01T03:28:14.129472
MEAN_MOTION    = 14.66573889
ECCENTRICITY   = .01319673
INCLINATION    = 88.4835
RA_OF_ASC_NODE = 256.6446
ARG_OF_PERICENTER = 30.5326
MEAN_ANOMALY   = 330.3486

EPHEMERIS_TYPE = 0
CLASSIFICATION_TYPE = U
NORAD_CAT_ID   = 270425
ELEMENT_SET_NO = 999
REV_AT_EPOCH   = 7291
BSTAR          = .26507583E-2
MEAN_MOTION_DOT = .16798E-3
MEAN_MOTION_DDOT = 0

CCSDS_OMM_VERS = 2.0
CREATION_DATE  = 
ORIGINATOR     = 

OBJECT_NAME    = UNKNOWN
OBJECT_ID      = 
CENTER_NAME    = EARTH
REF_FRAME      = TEME
TIME_SYSTEM    = UTC
MEAN_ELEMENT_THEORY = SGP/SGP4

EPOCH          = 2026-01-02T02:26:10.088160
MEAN_MOTION    = 14.34098389
ECCENTRICITY   = .00132731
INCLINATION    = 87.8663
RA_OF_ASC_NODE = 222.8907
ARG_OF_PERICENTER = 29.4821
MEAN_ANOMALY   = 330.7123

EPHEMERIS_TYPE = 0
CLASSIFICATION_TYPE = U
NORAD_CAT_ID   = 270429
ELEMENT_SET_NO = 999
REV_AT_EPOCH   = 7159
BSTAR          = .15376848E-2
MEAN_MOTION_DOT = .4321E-4
MEAN_MOTION_DDOT = 0

